{
    "links": {
        "self": "http://www.neowsapp.com/rest/v1/neo/54017201?api_key=iIulBulltgU6a56xZRHN4H3l9WmuAYTsLGpBGhQ2"
    },
    "id": "54017201",
    "neo_reference_id": "54017201",
    "name": "(2020 JP3)",
    "designation": "2020 JP3",
    "nasa_jpl_url": "http://ssd.jpl.nasa.gov/sbdb.cgi?sstr=54017201",
    "absolute_magnitude_h": 24.728,
    "estimated_diameter": {
        "kilometers": {
            "estimated_diameter_min": 0.0301269368,
            "estimated_diameter_max": 0.0673658787
        },
        "meters": {
            "estimated_diameter_min": 30.1269368146,
            "estimated_diameter_max": 67.3658786712
        },
        "miles": {
            "estimated_diameter_min": 0.0187200049,
            "estimated_diameter_max": 0.0418592034
        },
        "feet": {
            "estimated_diameter_min": 98.8416593787,
            "estimated_diameter_max": 221.0166693797
        }
    },
    "is_potentially_hazardous_asteroid": false,
    "close_approach_data": [
        {
            "close_approach_date": "2014-04-19",
            "close_approach_date_full": "2014-Apr-19 22:24",
            "epoch_date_close_approach": 1397946240000,
            "relative_velocity": {
                "kilometers_per_second": "2.6654638846",
                "kilometers_per_hour": "9595.6699844828",
                "miles_per_hour": "5962.3761634138"
            },
            "miss_distance": {
                "astronomical": "0.3696554326",
                "lunar": "143.7959632814",
                "kilometers": "55299665.350888562",
                "miles": "34361618.6796116756"
            },
            "orbiting_body": "Earth"
        },
        {
            "close_approach_date": "2018-05-20",
            "close_approach_date_full": "2018-May-20 06:27",
            "epoch_date_close_approach": 1526797620000,
            "relative_velocity": {
                "kilometers_per_second": "2.0682265456",
                "kilometers_per_hour": "7445.6155643001",
                "miles_per_hour": "4626.4159599397"
            },
            "miss_distance": {
                "astronomical": "0.240252805",
                "lunar": "93.458341145",
                "kilometers": "35941307.88952535",
                "miles": "22332893.13253583"
            },
            "orbiting_body": "Earth"
        },
        {
            "close_approach_date": "2020-06-01",
            "close_approach_date_full": "2020-Jun-01 09:06",
            "epoch_date_close_approach": 1591002360000,
            "relative_velocity": {
                "kilometers_per_second": "2.131367573",
                "kilometers_per_hour": "7672.9232626768",
                "miles_per_hour": "4767.6561239672"
            },
            "miss_distance": {
                "astronomical": "0.1959462684",
                "lunar": "76.2230984076",
                "kilometers": "29313144.387088308",
                "miles": "18214343.3118143304"
            },
            "orbiting_body": "Earth"
        },
        {
            "close_approach_date": "2022-06-12",
            "close_approach_date_full": "2022-Jun-12 20:32",
            "epoch_date_close_approach": 1655065920000,
            "relative_velocity": {
                "kilometers_per_second": "2.1018905278",
                "kilometers_per_hour": "7566.8059000671",
                "miles_per_hour": "4701.7189216278"
            },
            "miss_distance": {
                "astronomical": "0.1898474869",
                "lunar": "73.8506724041",
                "kilometers": "28400779.665092903",
                "miles": "17647426.1618639414"
            },
            "orbiting_body": "Earth"
        },
        {
            "close_approach_date": "2024-06-24",
            "close_approach_date_full": "2024-Jun-24 15:01",
            "epoch_date_close_approach": 1719241260000,
            "relative_velocity": {
                "kilometers_per_second": "1.9065521759",
                "kilometers_per_hour": "6863.5878330773",
                "miles_per_hour": "4264.7665621696"
            },
            "miss_distance": {
                "astronomical": "0.2255082428",
                "lunar": "87.7227064492",
                "kilometers": "33735552.790322836",
                "miles": "20962300.4691176968"
            },
            "orbiting_body": "Earth"
        }
    ],
    "orbital_data": {
        "orbit_id": "2",
        "orbit_determination_date": "2020-05-24 07:19:01",
        "first_observation_date": "2020-04-30",
        "last_observation_date": "2020-05-23",
        "data_arc_in_days": 23,
        "observations_used": 16,
        "orbit_uncertainty": "7",
        "minimum_orbit_intersection": ".186531",
        "jupiter_tisserand_invariant": "4.364",
        "epoch_osculation": "2459000.5",
        "eccentricity": ".2402431124117891",
        "semi_major_axis": "1.57811276256857",
        "inclination": "3.922969586506579",
        "ascending_node_longitude": "233.8212374500212",
        "orbital_period": "724.1115503597639",
        "perihelion_distance": "1.19898204075233",
        "perihelion_argument": "25.05363823768032",
        "aphelion_distance": "1.95724348438481",
        "perihelion_time": "2459014.276677167568",
        "mean_anomaly": "353.1507738305507",
        "mean_motion": ".4971609689434445",
        "equinox": "J2000",
        "orbit_class": {
            "orbit_class_type": "AMO",
            "orbit_class_description": "Near-Earth asteroid orbits similar to that of 1221 Amor",
            "orbit_class_range": "1.017 AU < q (perihelion) < 1.3 AU"
        }
    },
    "is_sentry_object": false
}